{
    "links": {
        "self": "http://www.neowsapp.com/rest/v1/neo/3335422?api_key=iIulBulltgU6a56xZRHN4H3l9WmuAYTsLGpBGhQ2"
    },
    "id": "3335422",
    "neo_reference_id": "3335422",
    "name": "(2006 KY112)",
    "designation": "2006 KY112",
    "nasa_jpl_url": "http://ssd.jpl.nasa.gov/sbdb.cgi?sstr=3335422",
    "absolute_magnitude_h": 21.3,
    "estimated_diameter": {
        "kilometers": {
            "estimated_diameter_min": 0.1460679643,
            "estimated_diameter_max": 0.3266178974
        },
        "meters": {
            "estimated_diameter_min": 146.0679642714,
            "estimated_diameter_max": 326.6178974458
        },
        "miles": {
            "estimated_diameter_min": 0.090762397,
            "estimated_diameter_max": 0.2029508896
        },
        "feet": {
            "estimated_diameter_min": 479.2256199,
            "estimated_diameter_max": 1071.581062656
        }
    },
    "is_potentially_hazardous_asteroid": false,
    "close_approach_data": [
        {
            "close_approach_date": "2006-06-09",
            "close_approach_date_full": "2006-Jun-09 14:59",
            "epoch_date_close_approach": 1149865140000,
            "relative_velocity": {
                "kilometers_per_second": "11.5625090731",
                "kilometers_per_hour": "41625.0326632666",
                "miles_per_hour": "25864.1765456836"
            },
            "miss_distance": {
                "astronomical": "0.1121842718",
                "lunar": "43.6396817302",
                "kilometers": "16782528.108781066",
                "miles": "10428179.4056920708"
            },
            "orbiting_body": "Earth"
        }
    ],
    "orbital_data": {
        "orbit_id": "9",
        "orbit_determination_date": "2017-04-06 09:08:30",
        "first_observation_date": "2006-05-31",
        "last_observation_date": "2006-06-26",
        "data_arc_in_days": 26,
        "observations_used": 25,
        "orbit_uncertainty": "8",
        "minimum_orbit_intersection": ".0654786",
        "jupiter_tisserand_invariant": "4.573",
        "epoch_osculation": "2453892.5",
        "eccentricity": ".2509005623551643",
        "semi_major_axis": "1.438198888241589",
        "inclination": "20.18911388690858",
        "ascending_node_longitude": "75.55727198169261",
        "orbital_period": "629.9801273747587",
        "perihelion_distance": "1.077353978403202",
        "perihelion_argument": "170.3536176923841",
        "aphelion_distance": "1.799043798079976",
        "perihelion_time": "2453888.479947329518",
        "mean_anomaly": "2.297245418525094",
        "mean_motion": ".5714465970540772",
        "equinox": "J2000",
        "orbit_class": {
            "orbit_class_type": "AMO",
            "orbit_class_description": "Near-Earth asteroid orbits similar to that of 1221 Amor",
            "orbit_class_range": "1.017 AU < q (perihelion) < 1.3 AU"
        }
    },
    "is_sentry_object": false
}